ONEWEB-0184             
1 48211U 21031B   24190.41933304  .00000198  00000+0  49971-3 0  9996
2 48211  87.8946  70.6853 0002028  48.4896 311.6408 13.14502375155173
ONEWEB-0179             
1 48212U 21031C   24190.61755664 -.00000171  00000+0 -49532-3 0  9996
2 48212  87.8953  70.6494 0001729  79.5173 280.6152 13.14502424155247
ONEWEB-0209             
1 48215U 21031F   24190.58584700  .00000232  00000+0  59187-3 0  9999
2 48215  87.8951  70.6896 0001614  80.8178 279.3134 13.14502776155286
ONEWEB-0198             
1 48216U 21031G   24190.41775110  .00000198  00000+0  49860-3 0  9997
2 48216  87.8949  70.7277 0001538  67.7608 292.3685 13.14503648155370
ONEWEB-0189             
1 48217U 21031H   24190.43043288  .00000284  00000+0  73241-3 0  9990
2 48217  87.8949  70.7006 0001445  67.8464 292.2819 13.14501731155110
